NORAD_CAT_ID,OBJECT_NAME,OBJECT_TYPE,EPOCH,MEAN_MOTION,ECCENTRICITY,INCLINATION,RA_OF_ASC_NODE,ARG_OF_PERICENTER,MEAN_ANOMALY,BSTAR,MEAN_MOTION_DOT,MEAN_MOTION_DDOT,TLE_LINE0,TLE_LINE1,TLE_LINE2,SEMIMAJOR_AXIS,PERIOD,APOGEE,PERIGEE,DECAYED
54009.0,STARLINK-5099,PAYLOAD,2023-03-11 10:33:49,15.08838258,0.000131,53.2173,85.9993,99.2993,260.8147,0.0013083,0.00020594,0.0,0 STARLINK-5099,1 54009U 22125AX  23070.44015927  .00020594  00000-0  13083-2 0  9991,2 54009  53.2173  85.9993 0001310  99.2993 260.8147 15.08838258 24327,6917.886,95.438,540.657,538.844,0.0
54009.0,STARLINK-5099,PAYLOAD,2023-03-11 12:09:12,15.08839323,0.0001311,53.2173,85.7024,81.0284,279.0856,0.0010967,0.00017209,0.0,0 STARLINK-5099,1 54009U 22125AX  23070.50639971  .00017209  00000-0  10967-2 0  9996,2 54009  53.2173  85.7024 0001311  81.0284 279.0856 15.08839323 24281,6917.882,95.438,540.654,538.841,0.0
54009.0,STARLINK-5099,PAYLOAD,2023-03-12 10:24:36,15.08856702,0.0001399,53.2174,81.5379,90.6162,269.4991,0.0011891,0.00018696,0.0,0 STARLINK-5099,1 54009U 22125AX  23071.43375982  .00018696  00000-0  11891-2 0  9996,2 54009  53.2174  81.5379 0001399  90.6162 269.4991 15.08856702 24470,6917.829,95.436,540.662,538.727,0.0
54009.0,STARLINK-5099,PAYLOAD,2023-03-12 11:59:59,15.08865914,0.0001415,53.2176,81.2413,95.9809,264.1345,0.0014175,0.00022359,0.0,0 STARLINK-5099,1 54009U 22125AX  23071.49999759  .00022359  00000-0  14175-2 0  9995,2 54009  53.2176  81.2413 0001415  95.9809 264.1345 15.08865914 24439,6917.801,95.436,540.645,538.687,0.0
54009.0,STARLINK-5099,PAYLOAD,2023-03-13 11:50:46,15.08866017,0.0001037,53.2183,76.781,119.9338,240.1758,0.00091165,0.00014261,0.0,0 STARLINK-5099,1 54009U 22125AX  23072.49358981  .00014261  00000-0  91165-3 0  9990,2 54009  53.2183  76.7810 0001037 119.9338 240.1758 15.08866017 24630,6917.801,95.436,540.383,538.948,0.0
54009.0,STARLINK-5099,PAYLOAD,2023-03-14 00:33:52,15.08823843,0.0001046,53.2181,74.4058,99.5125,260.5985,0.00074124,0.00011523,0.0,0 STARLINK-5099,1 54009U 22125AX  23073.02351878  .00011523  00000-0  74124-3 0  9992,2 54009  53.2181  74.4058 0001046  99.5125 260.5985 15.08823843 24711,6917.93,95.439,540.518,539.071,0.0
54009.0,STARLINK-5099,PAYLOAD,2023-03-14 10:06:10,15.08842692,0.0001319,53.2183,72.6186,116.4384,243.6744,0.0013035,0.0002052,0.0,0 STARLINK-5099,1 54009U 22125AX  23073.42095844  .00020520  00000-0  13035-2 0  9994,2 54009  53.2183  72.6186 0001319 116.4384 243.6744 15.08842692 24778,6917.872,95.437,540.65,538.825,0.0
54009.0,STARLINK-5099,PAYLOAD,2023-03-14 16:27:43,15.08841762,0.0001275,53.2177,71.4289,116.5905,243.5218,0.0010783,0.00016916,0.0,0 STARLINK-5099,1 54009U 22125AX  23073.68592066  .00016916  00000-0  10783-2 0  9991,2 54009  53.2177  71.4289 0001275 116.5905 243.5218 15.08841762 24810,6917.875,95.437,540.622,538.858,0.0
54009.0,STARLINK-5099,PAYLOAD,2023-03-15 09:56:57,15.08870414,0.0001359,53.2186,68.16,120.3342,239.7785,0.0012656,0.00019928,0.0,0 STARLINK-5099,1 54009U 22125AX  23074.41455178  .00019928  00000-0  12656-2 0  9992,2 54009  53.2186  68.1600 0001359 120.3342 239.7785 15.08870414 24879,6917.787,95.436,540.593,538.712,0.0
54009.0,STARLINK-5099,PAYLOAD,2023-03-15 22:40:02,15.08851988,0.0001409,53.2181,65.78,132.8188,227.2923,0.00040561,6.175e-05,0.0,0 STARLINK-5099,1 54009U 22125AX  23074.94447315  .00006175  00000-0  40561-3 0  9991,2 54009  53.2181  65.7800 0001409 132.8188 227.2923 15.08851988 24951,6917.844,95.437,540.683,538.734,0.0
54009.0,STARLINK-5099,PAYLOAD,2023-03-16 05:01:35,15.08840316,0.0001184,53.2183,64.5921,77.6083,282.5042,0.00022871,3.354e-05,0.0,0 STARLINK-5099,1 54009U 22125AX  23075.20943814  .00003354  00000-0  22871-3 0  9996,2 54009  53.2183  64.5921 0001184  77.6083 282.5042 15.08840316 25044,6917.879,95.438,540.564,538.925,0.0
54009.0,STARLINK-5099,PAYLOAD,2023-03-16 11:23:07,15.08850195,0.0001138,53.2182,63.4014,109.388,250.7235,0.00037857,5.744e-05,0.0,0 STARLINK-5099,1 54009U 22125AX  23075.47439475  .00005744  00000-0  37857-3 0  9993,2 54009  53.2182  63.4014 0001138 109.3880 250.7235 15.08850195 25037,6917.849,95.437,540.501,538.927,0.0
54009.0,STARLINK-5099,PAYLOAD,2023-03-17 03:16:59,15.08833252,0.0001022,53.2183,60.4285,105.5951,254.5154,0.00076694,0.00011937,0.0,0 STARLINK-5099,1 54009U 22125AX  23076.13680395  .00011937  00000-0  76694-3 0  9999,2 54009  53.2183  60.4285 0001022 105.5951 254.5154 15.08833252 25187,6917.901,95.438,540.473,539.059,0.0
54009.0,STARLINK-5099,PAYLOAD,2023-03-17 11:13:55,15.08844449,0.0001082,53.2174,58.9415,90.2183,269.8933,0.0011554,0.0001815,0.0,0 STARLINK-5099,1 54009U 22125AX  23076.46800428  .00018150  00000-0  11554-2 0  9993,2 54009  53.2174  58.9415 0001082  90.2183 269.8933 15.08844449 25181,6917.867,95.437,540.48,538.983,0.0
54009.0,STARLINK-5099,PAYLOAD,2023-03-17 16:00:05,15.08832396,0.0001582,53.2176,58.0494,84.572,275.5453,0.00065023,0.00010073,0.0,0 STARLINK-5099,1 54009U 22125AX  23076.66672993  .00010073  00000-0  65023-3 0  9996,2 54009  53.2176  58.0494 0001582  84.5720 275.5453 15.08832396 25267,6917.904,95.438,540.863,538.674,0.0
54009.0,STARLINK-5099,PAYLOAD,2023-03-18 22:12:25,15.08844653,0.0001776,53.2158,52.401,81.3262,278.7931,0.0005501,8.479e-05,0.0,0 STARLINK-5099,1 54009U 22125AX  23077.92529004  .00008479  00000-0  55010-3 0  9992,2 54009  53.2158  52.4010 0001776  81.3262 278.7931 15.08844653 25401,6917.866,95.437,540.96,538.503,0.0
54009.0,STARLINK-5099,PAYLOAD,2023-03-19 04:33:57,15.08838732,0.0001324,53.2176,51.209,96.2641,263.8502,0.00023868,3.513e-05,0.0,0 STARLINK-5099,1 54009U 22125AX  23078.19025009  .00003513  00000-0  23868-3 0  9998,2 54009  53.2176  51.2090 0001324  96.2641 263.8502 15.08838732 25490,6917.884,95.438,540.665,538.833,0.0
54009.0,STARLINK-5099,PAYLOAD,2023-03-19 07:44:43,15.08843412,0.0001413,53.2177,50.6138,95.6472,264.4681,0.00023959,3.528e-05,0.0,0 STARLINK-5099,1 54009U 22125AX  23078.32272922  .00003528  00000-0  23959-3 0  9998,2 54009  53.2177  50.6138 0001413  95.6472 264.4681 15.08843412 25464,6917.87,95.437,540.712,538.757,0.0
54009.0,STARLINK-5099,PAYLOAD,2023-03-19 22:03:12,15.08844519,0.0001378,53.218,47.9374,96.9523,263.1626,0.00025187,3.723e-05,0.0,0 STARLINK-5099,1 54009U 22125AX  23078.91888898  .00003723  00000-0  25187-3 0  9990,2 54009  53.2180  47.9374 0001378  96.9523 263.1626 15.08844519 25554,6917.867,95.437,540.685,538.778,0.0
54009.0,STARLINK-5099,PAYLOAD,2023-03-20 07:35:30,15.08856216,0.0001475,53.218,46.1539,99.6775,260.4384,0.00039083,5.94e-05,0.0,0 STARLINK-5099,1 54009U 22125AX  23079.31632282  .00005940  00000-0  39083-3 0  9992,2 54009  53.2180  46.1539 0001475  99.6775 260.4384 15.08856216 25665,6917.831,95.437,540.716,538.675,0.0
54009.0,STARLINK-5099,PAYLOAD,2023-03-21 04:15:31,15.08849477,0.000143,53.2185,42.2892,88.1048,272.0108,0.00025022,3.698e-05,0.0,0 STARLINK-5099,1 54009U 22125AX  23080.17744558  .00003698  00000-0  25022-3 0  9994,2 54009  53.2185  42.2892 0001430  88.1048 272.0108 15.08849477 25794,6917.851,95.437,540.706,538.727,0.0
54009.0,STARLINK-5099,PAYLOAD,2023-03-21 07:26:17,15.08853336,0.000142,53.2188,41.6937,88.4219,271.6936,0.00033841,5.104e-05,0.0,0 STARLINK-5099,1 54009U 22125AX  23080.30992383  .00005104  00000-0  33841-3 0  9992,2 54009  53.2188  41.6937 0001420  88.4219 271.6936 15.08853336 25762,6917.84,95.437,540.687,538.722,0.0
54009.0,STARLINK-5099,PAYLOAD,2023-03-22 04:06:18,15.08841959,0.0001138,53.219,37.829,94.9542,265.158,0.0010637,0.00016682,0.0,0 STARLINK-5099,1 54009U 22125AX  23081.17105020  .00016682  00000-0  10637-2 0  9992,2 54009  53.2190  37.8290 0001138  94.9542 265.1580 15.08841959 25942,6917.874,95.437,540.527,538.952,0.0
54009.0,STARLINK-5099,PAYLOAD,2023-03-22 07:17:04,15.08846523,0.0001171,53.219,37.2342,97.3102,262.8023,0.0011461,0.00018002,0.0,0 STARLINK-5099,1 54009U 22125AX  23081.30352963  .00018002  00000-0  11461-2 0  9991,2 54009  53.2190  37.2342 0001171  97.3102 262.8023 15.08846523 25915,6917.86,95.437,540.536,538.915,0.0
54009.0,STARLINK-5099,PAYLOAD,2023-03-23 03:57:05,15.08846868,0.000106,53.2188,33.3685,101.7521,258.359,0.0002791,4.158e-05,0.0,0 STARLINK-5099,1 54009U 22125AX  23082.16464612  .00004158  00000-0  27910-3 0  9995,2 54009  53.2188  33.3685 0001060 101.7521 258.3590 15.08846868 26092,6917.859,95.437,540.458,538.991,0.0
54009.0,STARLINK-5099,PAYLOAD,2023-03-24 05:23:16,15.08895731,0.0001378,53.2187,28.6115,121.9327,238.1799,0.0035705,0.00057084,0.0,0 STARLINK-5099,1 54009U 22125AX  23083.22449255  .00057084  00000-0  35705-2 0  9995,2 54009  53.2187  28.6115 0001378 121.9327 238.1799 15.08895731 26254,6917.71,95.434,540.528,538.622,0.0
54009.0,STARLINK-5099,PAYLOAD,2023-03-25 03:38:40,15.0885992,0.0001412,53.2179,24.4503,128.052,232.0599,0.0012844,0.00020223,0.0,0 STARLINK-5099,1 54009U 22125AX  23084.15185203  .00020223  00000-0  12844-2 0  9992,2 54009  53.2179  24.4503 0001412 128.0520 232.0599 15.08859920 26398,6917.82,95.436,540.661,538.708,0.0
54009.0,STARLINK-5099,PAYLOAD,2023-03-25 05:14:03,15.08860907,0.0001312,53.2172,24.1526,118.6101,241.5023,0.0012025,0.00018912,0.0,0 STARLINK-5099,1 54009U 22125AX  23084.21809161  .00018912  00000-0  12025-2 0  9998,2 54009  53.2172  24.1526 0001312 118.6101 241.5023 15.08860907 26352,6917.816,95.436,540.589,538.774,0.0
54009.0,STARLINK-5099,PAYLOAD,2023-03-26 01:54:04,15.0884117,0.0001328,53.219,20.2836,114.6785,245.4345,0.001103,0.0001731,0.0,0 STARLINK-5099,1 54009U 22125AX  23085.07921933  .00017310  00000-0  11030-2 0  9991,2 54009  53.2190  20.2836 0001328 114.6785 245.4345 15.08841170 26535,6917.877,95.437,540.661,538.823,0.0
54009.0,STARLINK-5099,PAYLOAD,2023-03-26 22:34:05,15.08851206,0.000142,53.219,16.4167,115.8234,244.2905,0.00065302,0.00010123,0.0,0 STARLINK-5099,1 54009U 22125AX  23085.94033697  .00010123  00000-0  65302-3 0  9995,2 54009  53.2190  16.4167 0001420 115.8234 244.2905 15.08851206 26613,6917.846,95.437,540.693,538.729,0.0
